[{"OBJECT_NAME":"HULIANWANG DIGUI-129","OBJECT_ID":"2025-311B","EPOCH":"2026-03-05T03:38:51.866880","MEAN_MOTION":13.33710308,"ECCENTRICITY":0.0001465,"INCLINATION":50.0014,"RA_OF_ASC_NODE":128.7465,"ARG_OF_PERICENTER":247.175,"MEAN_ANOMALY":112.8969,"EPHEMERIS_TYPE":0,"CLASSIFICATION_TYPE":"U","NORAD_CAT_ID":67237,"ELEMENT_SET_NO":999,"REV_AT_EPOCH":950,"BSTAR":0.00015993,"MEAN_MOTION_DOT":-4.6e-7,"MEAN_MOTION_DDOT":0},{"OBJECT_NAME":"HULIANWANG DIGUI-130","OBJECT_ID":"2025-311C","EPOCH":"2026-03-05T04:47:23.572032","MEAN_MOTION":13.32173878,"ECCENTRICITY":0.000418,"INCLINATION":50.0191,"RA_OF_ASC_NODE":128.983,"ARG_OF_PERICENTER":287.6647,"MEAN_ANOMALY":72.377,"EPHEMERIS_TYPE":0,"CLASSIFICATION_TYPE":"U","NORAD_CAT_ID":67238,"ELEMENT_SET_NO":999,"REV_AT_EPOCH":950,"BSTAR":0.00016145,"MEAN_MOTION_DOT":-4.7e-7,"MEAN_MOTION_DDOT":0},{"OBJECT_NAME":"HULIANWANG DIGUI-131","OBJECT_ID":"2025-311D","EPOCH":"2026-03-05T04:58:58.850976","MEAN_MOTION":13.32648443,"ECCENTRICITY":4.52e-5,"INCLINATION":50.0041,"RA_OF_ASC_NODE":129.0155,"ARG_OF_PERICENTER":272.5117,"MEAN_ANOMALY":87.5705,"EPHEMERIS_TYPE":0,"CLASSIFICATION_TYPE":"U","NORAD_CAT_ID":67239,"ELEMENT_SET_NO":999,"REV_AT_EPOCH":950,"BSTAR":0.00016162,"MEAN_MOTION_DOT":-4.6e-7,"MEAN_MOTION_DDOT":0},{"OBJECT_NAME":"HULIANWANG DIGUI-132","OBJECT_ID":"2025-311E","EPOCH":"2026-03-05T04:24:14.533920","MEAN_MOTION":13.32619126,"ECCENTRICITY":0.0002526,"INCLINATION":49.9885,"RA_OF_ASC_NODE":128.8874,"ARG_OF_PERICENTER":138.7085,"MEAN_ANOMALY":221.398,"EPHEMERIS_TYPE":0,"CLASSIFICATION_TYPE":"U","NORAD_CAT_ID":67240,"ELEMENT_SET_NO":999,"REV_AT_EPOCH":950,"BSTAR":0.00012931,"MEAN_MOTION_DOT":-6.2e-7,"MEAN_MOTION_DDOT":0},{"OBJECT_NAME":"HULIANWANG DIGUI-133","OBJECT_ID":"2025-311F","EPOCH":"2026-03-05T04:01:27.539904","MEAN_MOTION":13.33288475,"ECCENTRICITY":0.0001451,"INCLINATION":50.0027,"RA_OF_ASC_NODE":128.8468,"ARG_OF_PERICENTER":215.0729,"MEAN_ANOMALY":145.0049,"EPHEMERIS_TYPE":0,"CLASSIFICATION_TYPE":"U","NORAD_CAT_ID":67241,"ELEMENT_SET_NO":999,"REV_AT_EPOCH":950,"BSTAR":0.0001559,"MEAN_MOTION_DOT":-4.9e-7,"MEAN_MOTION_DDOT":0},{"OBJECT_NAME":"HULIANWANG DIGUI-134","OBJECT_ID":"2025-311G","EPOCH":"2026-03-05T02:25:05.167200","MEAN_MOTION":13.33256797,"ECCENTRICITY":6.98e-5,"INCLINATION":50.0021,"RA_OF_ASC_NODE":129.1237,"ARG_OF_PERICENTER":307.4974,"MEAN_ANOMALY":52.5837,"EPHEMERIS_TYPE":0,"CLASSIFICATION_TYPE":"U","NORAD_CAT_ID":67242,"ELEMENT_SET_NO":999,"REV_AT_EPOCH":949,"BSTAR":0.00014932,"MEAN_MOTION_DOT":-5.2e-7,"MEAN_MOTION_DDOT":0},{"OBJECT_NAME":"HULIANWANG DIGUI-135","OBJECT_ID":"2025-311H","EPOCH":"2026-03-05T04:35:49.790400","MEAN_MOTION":13.32830323,"ECCENTRICITY":0.000329,"INCLINATION":50.0052,"RA_OF_ASC_NODE":128.9176,"ARG_OF_PERICENTER":218.5669,"MEAN_ANOMALY":141.497,"EPHEMERIS_TYPE":0,"CLASSIFICATION_TYPE":"U","NORAD_CAT_ID":67243,"ELEMENT_SET_NO":999,"REV_AT_EPOCH":950,"BSTAR":0.00014166,"MEAN_MOTION_DOT":-5.6e-7,"MEAN_MOTION_DDOT":0},{"OBJECT_NAME":"HULIANWANG DIGUI-136","OBJECT_ID":"2025-311J","EPOCH":"2026-03-04T17:02:38.717376","MEAN_MOTION":13.33731004,"ECCENTRICITY":6.97e-5,"INCLINATION":50.0081,"RA_OF_ASC_NODE":130.4255,"ARG_OF_PERICENTER":327.5935,"MEAN_ANOMALY":32.4896,"EPHEMERIS_TYPE":0,"CLASSIFICATION_TYPE":"U","NORAD_CAT_ID":67244,"ELEMENT_SET_NO":999,"REV_AT_EPOCH":944,"BSTAR":0.00015258,"MEAN_MOTION_DOT":-5.0e-7,"MEAN_MOTION_DDOT":0},{"OBJECT_NAME":"HULIANWANG DIGUI-137","OBJECT_ID":"2026-007A","EPOCH":"2026-03-03T07:04:58.476000","MEAN_MOTION":13.44406338,"ECCENTRICITY":0.00017498,"INCLINATION":50.008,"RA_OF_ASC_NODE":106.1504,"ARG_OF_PERICENTER":116.8856,"MEAN_ANOMALY":243.2202,"EPHEMERIS_TYPE":0,"CLASSIFICATION_TYPE":"U","NORAD_CAT_ID":67435,"ELEMENT_SET_NO":999,"REV_AT_EPOCH":669,"BSTAR":0.00017791131,"MEAN_MOTION_DOT":-2.5e-7,"MEAN_MOTION_DDOT":0},{"OBJECT_NAME":"HULIANWANG DIGUI-138","OBJECT_ID":"2026-007B","EPOCH":"2026-03-03T07:24:38.053728","MEAN_MOTION":13.43759555,"ECCENTRICITY":5.936e-5,"INCLINATION":50.0071,"RA_OF_ASC_NODE":106.2207,"ARG_OF_PERICENTER":208.756,"MEAN_ANOMALY":151.3286,"EPHEMERIS_TYPE":0,"CLASSIFICATION_TYPE":"U","NORAD_CAT_ID":67436,"ELEMENT_SET_NO":999,"REV_AT_EPOCH":669,"BSTAR":0.00017503354,"MEAN_MOTION_DOT":-2.8e-7,"MEAN_MOTION_DDOT":0},{"OBJECT_NAME":"HULIANWANG DIGUI-139","OBJECT_ID":"2026-007C","EPOCH":"2026-03-05T02:06:34.554816","MEAN_MOTION":13.41969024,"ECCENTRICITY":0.0008849,"INCLINATION":50.0424,"RA_OF_ASC_NODE":99.6398,"ARG_OF_PERICENTER":294.9042,"MEAN_ANOMALY":65.0916,"EPHEMERIS_TYPE":0,"CLASSIFICATION_TYPE":"U","NORAD_CAT_ID":67437,"ELEMENT_SET_NO":999,"REV_AT_EPOCH":693,"BSTAR":0.00021557,"MEAN_MOTION_DOT":-7.0e-8,"MEAN_MOTION_DDOT":0},{"OBJECT_NAME":"HULIANWANG DIGUI-140","OBJECT_ID":"2026-007D","EPOCH":"2026-03-03T07:34:49.744128","MEAN_MOTION":13.43527498,"ECCENTRICITY":6.137e-5,"INCLINATION":50.0067,"RA_OF_ASC_NODE":106.2628,"ARG_OF_PERICENTER":210.9682,"MEAN_ANOMALY":149.116,"EPHEMERIS_TYPE":0,"CLASSIFICATION_TYPE":"U","NORAD_CAT_ID":67438,"ELEMENT_SET_NO":999,"REV_AT_EPOCH":669,"BSTAR":0.00019847315,"MEAN_MOTION_DOT":-1.4e-7,"MEAN_MOTION_DDOT":0},{"OBJECT_NAME":"HULIANWANG DIGUI-141","OBJECT_ID":"2026-007E","EPOCH":"2026-03-03T06:55:42.091968","MEAN_MOTION":13.44477953,"ECCENTRICITY":9.676e-5,"INCLINATION":50.0174,"RA_OF_ASC_NODE":106.0944,"ARG_OF_PERICENTER":218.2307,"MEAN_ANOMALY":141.8504,"EPHEMERIS_TYPE":0,"CLASSIFICATION_TYPE":"U","NORAD_CAT_ID":67439,"ELEMENT_SET_NO":999,"REV_AT_EPOCH":669,"BSTAR":0.00017959966,"MEAN_MOTION_DOT":-2.4e-7,"MEAN_MOTION_DDOT":0},{"OBJECT_NAME":"HULIANWANG DIGUI-142","OBJECT_ID":"2026-007F","EPOCH":"2026-03-04T09:32:27.014496","MEAN_MOTION":13.43451065,"ECCENTRICITY":0.00032604,"INCLINATION":50.0104,"RA_OF_ASC_NODE":102.0096,"ARG_OF_PERICENTER":327.4413,"MEAN_ANOMALY":32.6264,"EPHEMERIS_TYPE":0,"CLASSIFICATION_TYPE":"U","NORAD_CAT_ID":67440,"ELEMENT_SET_NO":999,"REV_AT_EPOCH":684,"BSTAR":3.8928843e-5,"MEAN_MOTION_DOT":-1.07e-6,"MEAN_MOTION_DDOT":0},{"OBJECT_NAME":"HULIANWANG DIGUI-143","OBJECT_ID":"2026-007G","EPOCH":"2026-03-03T06:37:00.254496","MEAN_MOTION":13.44825453,"ECCENTRICITY":0.0001458,"INCLINATION":50.0133,"RA_OF_ASC_NODE":106.0859,"ARG_OF_PERICENTER":312.0229,"MEAN_ANOMALY":48.0526,"EPHEMERIS_TYPE":0,"CLASSIFICATION_TYPE":"U","NORAD_CAT_ID":67441,"ELEMENT_SET_NO":999,"REV_AT_EPOCH":669,"BSTAR":0.00017428,"MEAN_MOTION_DOT":-2.7e-7,"MEAN_MOTION_DDOT":0},{"OBJECT_NAME":"HULIANWANG DIGUI-144","OBJECT_ID":"2026-007H","EPOCH":"2026-03-05T12:00:14.066784","MEAN_MOTION":13.42454129,"ECCENTRICITY":0.0004146,"INCLINATION":50.0071,"RA_OF_ASC_NODE":97.8502,"ARG_OF_PERICENTER":13.3457,"MEAN_ANOMALY":346.753,"EPHEMERIS_TYPE":0,"CLASSIFICATION_TYPE":"U","NORAD_CAT_ID":67442,"ELEMENT_SET_NO":999,"REV_AT_EPOCH":699,"BSTAR":0.00016263,"MEAN_MOTION_DOT":-3.6e-7,"MEAN_MOTION_DDOT":0}]
